[{"OBJECT_NAME":"STARLINK-35925","OBJECT_ID":"2025-283K","EPOCH":"2026-03-09T07:16:10.614432","MEAN_MOTION":15.3019028,"ECCENTRICITY":9.192e-5,"INCLINATION":53.1612,"RA_OF_ASC_NODE":26.0581,"ARG_OF_PERICENTER":75.3688,"MEAN_ANOMALY":284.7414,"EPHEMERIS_TYPE":0,"CLASSIFICATION_TYPE":"U","NORAD_CAT_ID":66887,"ELEMENT_SET_NO":999,"REV_AT_EPOCH":1578,"BSTAR":0.00053592951,"MEAN_MOTION_DOT":0.00015542,"MEAN_MOTION_DDOT":0},{"OBJECT_NAME":"TRANSPORTER-1 OBJECT AA","OBJECT_ID":"2021-006AA","EPOCH":"2026-03-09T22:58:14.761920","MEAN_MOTION":15.29982294,"ECCENTRICITY":0.00086604,"INCLINATION":97.2381,"RA_OF_ASC_NODE":112.457,"ARG_OF_PERICENTER":185.709,"MEAN_ANOMALY":174.4054,"EPHEMERIS_TYPE":0,"CLASSIFICATION_TYPE":"U","NORAD_CAT_ID":47437,"ELEMENT_SET_NO":999,"REV_AT_EPOCH":28414,"BSTAR":0.0002197941,"MEAN_MOTION_DOT":6.312e-5,"MEAN_MOTION_DDOT":0}]
